#dP2018 11 16  0  0  0.00000000      96 __u+U IGS08 FIT  IAC
## 2027 432000.00000000   900.00000000 58438 0.0000000000000
+   90   C01C02C03C04C05C06C07C08C09C10C12C13C14E01E02E03E04
+        E05E07E08E09E11E12E14E18E19E21E24E25E26E27E30E31G01
+        G02G03G05G06G07G08G09G10G11G12G13G14G15G16G17G18G19
+        G20G21G22G23G24G25G26G27G28G29G30G31G32J01J02J03R01
+        R02R03R04R05R07R08R09R10R11R13R14R15R16R17R18R19R20
+        R21R22R23R24R26  0  0  0  0  0  0  0  0  0  0  0  0
++        12 12 12 12 12  8  8  8  8  8  7  7  7  7  7  7  7
++         7  7  7  7  7  7  7  7  7  7  7  7  7  7  7  6  3
++         3  3  3  3  3  3  3  3  3  3  3  3  3  3  3  3  3
++         3  3  3  3  3  3  3  3  3  3  3  3  3  9 12 11  5
++         5  5  5  5  5  5  5  5  5  5  5  5  5  5  5  5  5
++         5  5  5  5  8  0  0  0  0  0  0  0  0  0  0  0  0
%c M  cc GPS ccc cccc cccc cccc cccc ccccc ccccc ccccc ccccc
%c cc cc ccc ccc cccc cccc cccc cccc ccccc ccccc ccccc ccccc
%f  1.2500000  1.025000000  0.00000000000  0.000000000000000
%f  0.0000000  0.000000000  0.00000000000  0.000000000000000
%i    0    0    0    0      0      0      0      0         0
%i    0    0    0    0      0      0      0      0         0
/* INFORMATION & ANALYSIS CENTER (IAC)            FINAL DATA
/* S/V CLOCKS ARE ALIGNED TO GPS & GLONASS TIME RESPECTIVELY
/* USING THE BROADCAST EPHEMERIS                            
/* PCV:IGS14_2022 OL/AL:FES2004  NONE     YN ORB:CoN CLK:CoN
*  2018 11 16  0 45  0.00000000
PC01 -32324.181132  27043.761297   -269.137292   -108.304899
PC02   4437.390264  41936.845806    948.161993   -102.329026
PC03 -14834.555912  39496.543333    124.404809    -50.934756
PC04 -39590.881127  14415.345259    -38.028237    -13.192191
PC05  21833.228659  36068.425837   1067.962426    132.652038
PC06 -21966.916337  36184.742372  -1024.948417     53.519549
PC07  -8621.795389  29029.360787 -29027.368303   -136.649830
PC08 -19851.679802  19088.844497  31909.360411     33.256827
PC09 -10237.370868  36979.700516 -17649.220288    287.505841
PC10   5279.647395  36879.442045 -19243.254304   -241.809942
PC12  21555.443236   1193.450432  17800.939833    214.187396
PC13  -2621.894968  23362.849206  35018.709980   -379.256255
PC14  14713.252132 -10838.672331 -21025.219442    665.495017
PE01    985.949413  22044.605917 -19719.231451   -478.788585
PE02  -1009.993751 -22064.330129  19710.441553     35.323143
PE03   8704.103595 -28110.058375   3264.392142   -100.150290
PE04   5992.042876  21759.333355 -19153.584794   -159.481597
PE05  18380.021315 -18016.627988 -14625.921805    158.802940
PE07 -17270.736845  -2583.171718  23900.593651    -76.122181
PE08  -6111.082368 -21633.995937  19260.138005   6462.085894
PE09  17164.724064   2363.551236 -24000.281008   6616.566011
PE11  28014.015252   1923.772753   9350.416843   5708.516925
PE12  13130.949219  13420.692132  22885.159383   5506.912222
PE14 -22046.917596  -5521.647541 -23120.408274   6488.927747
PE18  18954.028231  -1107.552354  14307.963512   5753.284373
PE19  -9941.151671  27848.821996  -1383.939352    -10.607951
PE21 -15406.583793   6410.870633 -24442.963857   -504.691711
PE24  22326.262991  12329.259115  15034.790534   6387.309326
PE25  15425.702825  -6396.282130  24452.064449   1982.162494
PE26 -26167.869698  10297.442180   9221.007331   5243.932871
PE27 -22392.371944 -12771.580923 -14537.760015    589.646252
PE30 -16448.138005 -24384.604640   3289.472554   5346.920637
PE31  16258.598677  24428.265943  -3845.056941    982.749578
PG01 -19138.833163 -13703.307619 -12762.582074   -114.905681
PG02  -2712.930211  15432.684155  22028.787710    -59.745525
PG03 -13432.958598 -20530.990256  10218.746176    160.690260
PG05   1872.106621  25068.960147   8125.164942     -0.176722
PG06 -17740.739185   8326.807965  17969.295204    332.863407
PG07 -26085.774371  -6084.175855   -964.864391     87.775852
PG08   -725.270507 -18382.632275 -19045.368296   -122.323036
PG09 -18261.326953   -446.411911  19241.421387    492.127264
PG10  13329.170687  -7881.458518 -21519.941596    163.788216
PG11 -14407.608646 -12337.957815 -19061.728631   -699.411656
PG12   9922.134533  23732.074852   6792.439693    291.828772
PG13  -7888.168523  20207.896522 -15422.070817    -84.369229
PG14  18460.701219 -18839.014475   2439.126042    -95.759268
PG15   6137.687735  16423.723081 -20093.348444   -339.651769
PG16   1292.561371 -24560.187926   9296.318958     -1.339814
PG17 -21374.905724  13831.497432  -6943.924912    -30.958864
PG18 -10042.614901 -15935.996196 -19259.621667     79.729580
PG19 -19225.286688  18276.291250   1979.423825   -383.335903
PG20  17295.467394   2161.295417 -20192.439211    518.744873
PG21  26089.887581   2487.984364  -3250.050612   -303.696695
PG22 -11103.569894 -24000.633412   2910.493384   -574.895207
PG23 -12595.977931  -9521.979931  21675.490845   -206.100602
PG24  15279.308714  14935.395630 -16101.228156    -58.203206
PG25  15503.777214  14505.592915  15923.109868   -677.389395
PG26   6833.506716 -18938.241908  17241.338644     40.497328
PG27   8968.438466 -21598.059002 -12413.603772    -18.619667
PG28 -13673.005288   4920.091302 -21613.336175    754.686120
PG29  16697.755257   3007.280790  20413.478321    335.327336
PG30 -23852.433870   1848.577858 -11697.710245     -5.373544
PG31  15917.985315  -9513.408994  19197.783570     79.432522
PG32  20512.739228 -15681.780935  -5968.240268   -355.626712
PJ01 -25388.616536  27823.802745  23957.691445   -270.034137
PJ02 -22873.907025  17398.019678 -26571.666982      0.848222
PJ03 -26989.441496  32462.411300   2132.263472      0.930755
PR01   3090.816607 -25207.153881   2468.022805     35.021806
PR02  -6609.710063 -14988.858262  19564.089162    339.723854
PR03 -11583.954979   3597.633812  22476.901495    148.957038
PR04  -9565.585626  20426.005660  11939.399597    283.891093
PR05  -2316.813911  24969.002087  -4732.939512     15.547967
PR07  11593.553806  -4027.692112 -22329.313663    -51.671388
PR08   9783.096724 -19944.805533 -12486.924581     20.458044
PR09  19361.681692  16549.326389    396.902084     38.877477
PR10  18846.081802   6910.113512  15674.829947     35.775239
PR11   7548.920840  -8070.127906  23010.284390    -47.194746
PR13 -19376.688685 -16587.280802    470.977666    -16.878013
PR14 -19065.975077  -6741.402727 -15537.189153     33.038528
PR15 -11031.116282   4213.756503 -22582.433959    -19.205216
PR16   7596.764423  17146.550259 -17363.917941    106.491772
PR17 -23797.390244   4355.831415  -8006.536187    180.594365
PR18 -20880.029214  11586.721119   9054.544124     27.240361
PR19  -6698.240686  12262.339747  21339.514581    -61.554098
PR20  13105.490348   5749.609324  21112.298394   -359.201781
PR21  23931.251389  -4660.935045   7558.256042    -14.712364
PR22  19422.977798 -12016.180313 -11229.928098    -64.677209
PR23   1703.228659 -11456.090530 -22733.514975    190.943580
PR24 -14431.524871  -4842.738843 -20492.781125   -173.810236
PR26  11754.584455   6351.555405  21747.442173      4.652432
EOF
